[{"OBJECT_NAME":"STARLINK-31678","OBJECT_ID":"2024-071K","EPOCH":"2026-03-09T03:33:43.652160","MEAN_MOTION":15.27584729,"ECCENTRICITY":8.465e-5,"INCLINATION":43.0011,"RA_OF_ASC_NODE":350.518,"ARG_OF_PERICENTER":274.2643,"MEAN_ANOMALY":85.8112,"EPHEMERIS_TYPE":0,"CLASSIFICATION_TYPE":"U","NORAD_CAT_ID":59493,"ELEMENT_SET_NO":999,"REV_AT_EPOCH":10685,"BSTAR":8.625168e-6,"MEAN_MOTION_DOT":-2.5e-7,"MEAN_MOTION_DDOT":0},{"OBJECT_NAME":"OBJECT BE","OBJECT_ID":"2025-313BE","EPOCH":"2026-03-09T16:43:59.380320","MEAN_MOTION":15.29801687,"ECCENTRICITY":0.00072083,"INCLINATION":97.3989,"RA_OF_ASC_NODE":145.3568,"ARG_OF_PERICENTER":335.3714,"MEAN_ANOMALY":24.7181,"EPHEMERIS_TYPE":0,"CLASSIFICATION_TYPE":"U","NORAD_CAT_ID":67482,"ELEMENT_SET_NO":999,"REV_AT_EPOCH":797,"BSTAR":0.0026504328,"MEAN_MOTION_DOT":0.00077178,"MEAN_MOTION_DDOT":0}]
