STARLINK-31678          
1 59493U 24071K   26068.14842190 -.00000025  00000+0  86252-5 0  9990
2 59493  43.0011 350.5180 0000846 274.2643  85.8112 15.27584729106854
2025-313BE              
1 67482U 25313BE  26068.69721505  .00077178  00000+0  26504-2 0  9996
2 67482  97.3989 145.3568 0007208 335.3714  24.7181 15.29801687  7972
